YAOGAN 30 R             
1 45460U 20021A   20113.78975822  .00000195  00000-0  22740-4 0  9993
2 45460  34.9997  36.8711 0004685   3.8197 356.2549 14.89744719  4427
YAOGAN 30 S             
1 45461U 20021B   20113.90143631  .00000171  00000-0  20243-4 0  9993
2 45461  34.9986  35.8854 0003888 283.5622  76.4649 14.89745663  4417
YAOGAN 30 T             
1 45462U 20021C   20113.87582456  .00000198  00000-0  22625-4 0  9997
2 45462  35.0014  35.6858 0007110 165.9823 194.1086 14.90517098  4416
CZ-2C R/B               
1 45463U 20021D   20113.92716985  .00001887  00000-0  60367-4 0  9991
2 45463  34.6812  25.4418 0152333 334.9164  24.4208 15.21441452  4563
TDO-2                   
1 45464U 20022A   20087.29241302 -.00000093  00000-0  00000+0 0  9991
2 45464  26.4980 318.9837 7282322 179.9623 357.3555  2.30488966    16
AEHF-6 (USA 298)        
1 45465U 20022B   20113.90502655 -.00000138  00000-0  00000-0 0  9992
2 45465   9.6049 318.4230 1326248 182.5993 267.6162  1.22952641   358
ATLAS 5 CENTAUR R/B     
1 45466U 20022C   20113.27227789 -.00000078  00000-0  00000-0 0  9998
2 45466  13.3892 316.8773 4146424 183.7753 171.5394  1.71717158   454
SOYUZ-MS 16             
1 45476U 20023A   20113.49921968  .00001033  00000-0  26642-4 0  9999
2 45476  51.6432 264.0853 0001708 176.8064 256.0965 15.49300901  2024
2020-024A               
1 45529U 20024A   20113.93246813  .00004198  00000-0  10000-3 0  9992
2 45529  59.8002 168.5995 0013507 210.7226 213.3084 15.43604526   108
2020-024B               
1 45530U 20024B   20113.92028756 -.00014873  00000-0 -30488-3 0  9992
2 45530  59.8125 168.6460 0007362 230.1027 129.9438 15.44990098   109
